satname,norad_id,inclination_deg,eccentricity,mean_motion_rev_per_day,perigee_km,apogee_km,l1,l2
STARLINK-1570,46059,53.162,0.0001229,15.31695745,469.91095064702586,471.59440773017104,1 46059U 20055AJ  26163.81484698 -.00003473  00000+0 -10021-3 0  9997,2 46059  53.1620  31.4013 0001229  88.8819 271.2323 15.31695745323601
STARLINK-1572,46060,53.1612,0.0001411,15.30202653,474.2401411916844,476.1741549102653,1 46060U 20055AK  26163.82756797 -.00003650  00000+0 -11116-3 0  9995,2 46060  53.1612  32.2090 0001411  85.7818 274.3344 15.30202653323604
STARLINK-1573,46061,53.1612,9.49e-05,15.31710108,470.059908401935,471.3598195367158,1 46061U 20055AL  26163.86610758  .00001696  00000+0  66381-4 0  9997,2 46061  53.1612  31.1308 0000949 115.7787 244.3313 15.31710108323657
STARLINK-1577,46063,53.1593,0.0001077,15.31707119,469.9811521724296,471.4563957061364,1 46063U 20055AN  26163.82882345  .00004621  00000+0  16054-3 0  9990,2 46063  53.1593  31.3019 0001077  65.8251 294.2863 15.31707119323643
STARLINK-1583,46064,53.161,9.68e-05,15.31718469,470.0219746870407,471.3479066147502,1 46064U 20055AP  26163.84287368  .00003357  00000+0  11983-3 0  9998,2 46064  53.1610  31.7369 0000968  76.3645 283.7464 15.31718469323637
STARLINK-1536,46070,53.1599,0.0001226,15.31718043,469.8465447838944,471.52587623511135,1 46070U 20055AV  26163.84416086  .00003953  00000+0  13901-3 0  9990,2 46070  53.1599  19.1203 0001226  86.4894 273.6248 15.31718043323819
STARLINK-1542,46073,53.1601,8.7e-05,15.31716629,470.0945775043974,471.28627347643214,1 46073U 20055AY  26163.86853201  .00002641  00000+0  96769-4 0  9996,2 46073  53.1601  21.9732 0000870  84.2115 275.8986 15.31716629323765
STARLINK-1549,46074,53.0508,0.0002836,15.29752547,474.60741943367975,478.4953986993023,1 46074U 20055AZ  26163.83512124  .00035126  00000+0  12089-2 0  9995,2 46074  53.0508  19.3018 0002836 140.9911 219.1293 15.29752547323787
STARLINK-1551,46075,53.1575,0.0001158,15.31698648,469.9509250475103,471.53712589300994,1 46075U 20055BA  26163.83335647 -.00010900  00000+0 -34001-3 0  9993,2 46075  53.1575  19.1062 0001158  93.0859 257.0062 15.31698648  5792
STARLINK-1552,46076,53.16,0.0001379,15.31724582,469.7222685100078,471.61116857558136,1 46076U 20055BB  26163.88637387 -.00002318  00000+0 -62882-4 0  9998,2 46076  53.1600  18.4451 0001379 137.3684 222.7424 15.31724582323802
STARLINK-1559,46077,53.0234,4.61e-05,15.38827218,449.2614157238004,449.89093087837864,1 46077U 20055BC  26163.79592183  .00051354  00000+0  13188-2 0  9998,2 46077  53.0234 348.0363 0000461 144.8447 215.2586 15.38827218324185
STARLINK-1566,46079,53.1605,8.81e-05,15.31712552,470.0991958554423,471.30596138919555,1 46079U 20055BE  26163.82576927  .00001166  00000+0  49322-4 0  9999,2 46079  53.1605  18.5756 0000881 103.4624 256.6476 15.31712552323812
STARLINK-1568,46080,53.0587,0.0002921,15.5459632,401.3454657857137,405.3071966638154,1 46080U 20055BF  26162.67189643  .00047573  00000+0  71021-3 0  9990,2 46080  53.0587 301.8088 0002921  68.0362 292.0959 15.54596320324774
STARLINK-1578,46082,53.1597,0.0001197,15.31715356,469.87441507408494,471.5140252681931,1 46082U 20055BH  26163.83016073  .00001198  00000+0  50345-4 0  9997,2 46082  53.1597  19.0709 0001197  96.2295 263.8842 15.31715356323805
STARLINK-1579,46083,53.1602,0.000121,15.31719809,469.8522392923096,471.50965323530545,1 46083U 20055BJ  26163.88170929  .00011066  00000+0  36759-3 0  9991,2 46083  53.1602  18.3691 0001210  93.3084 266.8056 15.31719809323813
STARLINK-1622,46128,53.0127,0.0005914,15.86871889,307.103143852597,315.0151250404215,1 46128U 20057M   26163.83335647  .00297703  00000+0  10979-2 0  9997,2 46128  53.0127 110.7421 0005914  92.0367 334.9813 15.86871889  6034
STARLINK-1623,46129,53.0386,0.0005983,15.75908581,338.02626485309975,346.06763696875987,1 46129U 20057N   26163.24925615  .00141230  00000+0  88309-3 0  9999,2 46129  53.0386 152.2593 0005983  46.7069 313.4449 15.75908581321725
STARLINK-1596,46141,53.0336,0.0006658,15.60451531,381.8480579761699,390.8556513350286,1 46141U 20057AA  26163.18852755  .00110259  00000+0  13036-2 0  9991,2 46141  53.0336 135.5388 0006658  48.5456 311.6127 15.60451531321950
STARLINK-1597,46142,53.0389,0.0005367,15.75729908,338.9479498520359,346.1619405860338,1 46142U 20057AB  26163.79747017  .00127088  00000+0  80279-3 0  9995,2 46142  53.0389 189.2802 0005367  40.1438 319.9976 15.75729908321247
STARLINK-1606,46144,53.0299,0.0003373,15.98254361,277.0162979010811,281.50737915755326,1 46144U 20057AD  26163.83335647  .00560138  14562-3  11839-2 0  9998,2 46144  53.0299 141.2408 0003373 187.9506 165.3174 15.98254361  6008
STARLINK-1608,46146,53.1574,0.0005087,15.36356208,453.41816710706826,460.37212881440246,1 46146U 20057AF  26162.49539911  .00047874  00000+0  13328-2 0  9991,2 46146  53.1574 232.1066 0005087 351.4442   8.6474 15.36356208320565
STARLINK-1667,46155,53.0088,0.0005048,15.93930211,287.9301775067079,294.66363797996564,1 46155U 20057AQ  26163.83335647  .00441968  88246-4  11829-2 0  9999,2 46155  53.0088 109.6893 0005048 100.9271 103.1214 15.93930211  6046
STARLINK-1545,46156,53.0352,0.0001363,15.88405208,305.84248198020214,307.66478316664234,1 46156U 20057AR  26163.83335647  .00355663  00000+0  12087-2 0  9990,2 46156  53.0352 146.2042 0001363 139.1596 306.7705 15.88405208  6003
STARLINK-1595,46159,53.0404,0.0006127,15.73385032,345.108832681015,353.3525490494012,1 46159U 20057AU  26163.26451788  .00110634  00000+0  77537-3 0  9994,2 46159  53.0404 194.7621 0006127  32.7684 327.3713 15.73385032322380
STARLINK-1598,46160,53.0418,0.0001604,15.73045039,349.1207854018721,351.2792359148898,1 46160U 20057AV  26163.30309503  .00098944  00000+0  70564-3 0  9990,2 46160  53.0418 180.7375 0001604 344.4086  15.6882 15.73045039322577
STARLINK-1626,46167,53.0383,0.0001748,15.76531808,339.10139503769005,341.4501521433376,1 46167U 20057BC  26163.79017602  .00122832  00000+0  75006-3 0  9996,2 46167  53.0383 187.6543 0001748  65.0221 295.0980 15.76531808321270
STARLINK-1633,46171,53.0312,0.0001756,15.84896626,315.44022994738043,317.79142714076534,1 46171U 20057BG  26163.83335647  .00282253  00000+0  11485-2 0  9992,2 46171  53.0312 148.1977 0001756 134.0294 206.6754 15.84896626  6038
STARLINK-1635,46172,53.0315,0.0001859,15.91826414,295.9309996149841,298.4128794787066,1 46172U 20057BH  26163.83335647  .00344112  55885-4  10315-2 0  9993,2 46172  53.0315 145.8451 0001859 142.3803 223.0439 15.91826414  5998
